[{"OBJECT_NAME":"ONEWEB-0349","OBJECT_ID":"2021-090C","EPOCH":"2026-06-07T01:50:16.084320","MEAN_MOTION":13.20771595,"ECCENTRICITY":0.0001938,"INCLINATION":87.9195,"RA_OF_ASC_NODE":276.4563,"ARG_OF_PERICENTER":101.9006,"MEAN_ANOMALY":258.2345,"EPHEMERIS_TYPE":0,"CLASSIFICATION_TYPE":"U","NORAD_CAT_ID":49281,"ELEMENT_SET_NO":999,"REV_AT_EPOCH":22849,"BSTAR":0.00019547,"MEAN_MOTION_DOT":9.2e-07,"MEAN_MOTION_DDOT":0.0},{"OBJECT_NAME":"ONEWEB-0353","OBJECT_ID":"2021-090D","EPOCH":"2026-06-06T09:38:51.278496","MEAN_MOTION":13.14502319,"ECCENTRICITY":0.0001645,"INCLINATION":87.8955,"RA_OF_ASC_NODE":291.8539,"ARG_OF_PERICENTER":95.4489,"MEAN_ANOMALY":264.6829,"EPHEMERIS_TYPE":0,"CLASSIFICATION_TYPE":"U","NORAD_CAT_ID":49282,"ELEMENT_SET_NO":999,"REV_AT_EPOCH":22616,"BSTAR":-0.00048589,"MEAN_MOTION_DOT":-1.67e-06,"MEAN_MOTION_DDOT":0.0},{"OBJECT_NAME":"ONEWEB-0356","OBJECT_ID":"2021-090E","EPOCH":"2026-06-07T01:47:50.726688","MEAN_MOTION":13.20772981,"ECCENTRICITY":0.0002378,"INCLINATION":87.9193,"RA_OF_ASC_NODE":276.4499,"ARG_OF_PERICENTER":82.0625,"MEAN_ANOMALY":278.0778,"EPHEMERIS_TYPE":0,"CLASSIFICATION_TYPE":"U","NORAD_CAT_ID":49283,"ELEMENT_SET_NO":999,"REV_AT_EPOCH":22849,"BSTAR":6.1115e-05,"MEAN_MOTION_DOT":3.8e-07,"MEAN_MOTION_DDOT":0.0},{"OBJECT_NAME":"ONEWEB-0358","OBJECT_ID":"2021-090F","EPOCH":"2026-06-07T06:08:25.433088","MEAN_MOTION":13.20770664,"ECCENTRICITY":0.0002113,"INCLINATION":87.9191,"RA_OF_ASC_NODE":276.4173,"ARG_OF_PERICENTER":99.3448,"MEAN_ANOMALY":260.7925,"EPHEMERIS_TYPE":0,"CLASSIFICATION_TYPE":"U","NORAD_CAT_ID":49284,"ELEMENT_SET_NO":999,"REV_AT_EPOCH":22924,"BSTAR":4.4999e-05,"MEAN_MOTION_DOT":3.1e-07,"MEAN_MOTION_DDOT":0.0},{"OBJECT_NAME":"ONEWEB-0359","OBJECT_ID":"2021-090G","EPOCH":"2026-06-07T06:04:48.518976","MEAN_MOTION":13.20772381,"ECCENTRICITY":0.0002218,"INCLINATION":87.919,"RA_OF_ASC_NODE":276.4141,"ARG_OF_PERICENTER":102.5705,"MEAN_ANOMALY":257.5676,"EPHEMERIS_TYPE":0,"CLASSIFICATION_TYPE":"U","NORAD_CAT_ID":49285,"ELEMENT_SET_NO":999,"REV_AT_EPOCH":22922,"BSTAR":4.3077e-05,"MEAN_MOTION_DOT":3.1e-07,"MEAN_MOTION_DDOT":0.0},{"OBJECT_NAME":"ONEWEB-0360","OBJECT_ID":"2021-090H","EPOCH":"2026-06-07T05:50:14.332416","MEAN_MOTION":13.20771282,"ECCENTRICITY":0.0001964,"INCLINATION":87.9197,"RA_OF_ASC_NODE":276.4224,"ARG_OF_PERICENTER":104.173,"MEAN_ANOMALY":255.9621,"EPHEMERIS_TYPE":0,"CLASSIFICATION_TYPE":"U","NORAD_CAT_ID":49286,"ELEMENT_SET_NO":999,"REV_AT_EPOCH":22853,"BSTAR":-0.00021029000000000002,"MEAN_MOTION_DOT":-7.3e-07,"MEAN_MOTION_DDOT":0.0},{"OBJECT_NAME":"ONEWEB-0361","OBJECT_ID":"2021-090J","EPOCH":"2026-06-07T01:45:23.851008","MEAN_MOTION":13.20770736,"ECCENTRICITY":0.0002142,"INCLINATION":87.9188,"RA_OF_ASC_NODE":276.4547,"ARG_OF_PERICENTER":99.8562,"MEAN_ANOMALY":260.2813,"EPHEMERIS_TYPE":0,"CLASSIFICATION_TYPE":"U","NORAD_CAT_ID":49287,"ELEMENT_SET_NO":999,"REV_AT_EPOCH":22896,"BSTAR":-0.00029537000000000004,"MEAN_MOTION_DOT":-1.07e-06,"MEAN_MOTION_DDOT":0.0},{"OBJECT_NAME":"ONEWEB-0362","OBJECT_ID":"2021-090K","EPOCH":"2026-06-07T04:03:56.071008","MEAN_MOTION":13.19724594,"ECCENTRICITY":0.0001726,"INCLINATION":87.9162,"RA_OF_ASC_NODE":306.9747,"ARG_OF_PERICENTER":104.9047,"MEAN_ANOMALY":255.2277,"EPHEMERIS_TYPE":0,"CLASSIFICATION_TYPE":"U","NORAD_CAT_ID":49288,"ELEMENT_SET_NO":999,"REV_AT_EPOCH":22559,"BSTAR":-0.00037972,"MEAN_MOTION_DOT":-1.39e-06,"MEAN_MOTION_DDOT":0.0},{"OBJECT_NAME":"ONEWEB-0363","OBJECT_ID":"2021-090L","EPOCH":"2026-06-06T13:23:34.630080","MEAN_MOTION":13.2077215,"ECCENTRICITY":0.0002121,"INCLINATION":87.9188,"RA_OF_ASC_NODE":276.5576,"ARG_OF_PERICENTER":92.5197,"MEAN_ANOMALY":267.6179,"EPHEMERIS_TYPE":0,"CLASSIFICATION_TYPE":"U","NORAD_CAT_ID":49289,"ELEMENT_SET_NO":999,"REV_AT_EPOCH":22890,"BSTAR":-0.00076447,"MEAN_MOTION_DOT":-2.98e-06,"MEAN_MOTION_DDOT":0.0},{"OBJECT_NAME":"ONEWEB-0364","OBJECT_ID":"2021-090M","EPOCH":"2026-06-07T06:41:09.438144","MEAN_MOTION":13.20770916,"ECCENTRICITY":0.0001985,"INCLINATION":87.9184,"RA_OF_ASC_NODE":276.4224,"ARG_OF_PERICENTER":101.2238,"MEAN_ANOMALY":258.9118,"EPHEMERIS_TYPE":0,"CLASSIFICATION_TYPE":"U","NORAD_CAT_ID":49290,"ELEMENT_SET_NO":999,"REV_AT_EPOCH":23013,"BSTAR":0.00051479,"MEAN_MOTION_DOT":2.22e-06,"MEAN_MOTION_DDOT":0.0},{"OBJECT_NAME":"ONEWEB-0365","OBJECT_ID":"2021-090N","EPOCH":"2026-06-07T02:28:24.860064","MEAN_MOTION":13.19725522,"ECCENTRICITY":0.0001698,"INCLINATION":87.917,"RA_OF_ASC_NODE":306.9754,"ARG_OF_PERICENTER":98.0684,"MEAN_ANOMALY":262.0642,"EPHEMERIS_TYPE":0,"CLASSIFICATION_TYPE":"U","NORAD_CAT_ID":49291,"ELEMENT_SET_NO":999,"REV_AT_EPOCH":22509,"BSTAR":-0.00030313000000000003,"MEAN_MOTION_DOT":-1.08e-06,"MEAN_MOTION_DDOT":0.0},{"OBJECT_NAME":"ONEWEB-0366","OBJECT_ID":"2021-090P","EPOCH":"2026-06-07T02:00:46.109664","MEAN_MOTION":13.14501915,"ECCENTRICITY":0.0001931,"INCLINATION":87.8955,"RA_OF_ASC_NODE":291.7203,"ARG_OF_PERICENTER":99.8163,"MEAN_ANOMALY":260.3185,"EPHEMERIS_TYPE":0,"CLASSIFICATION_TYPE":"U","NORAD_CAT_ID":49292,"ELEMENT_SET_NO":999,"REV_AT_EPOCH":22623,"BSTAR":-0.00051523,"MEAN_MOTION_DOT":-1.78e-06,"MEAN_MOTION_DDOT":0.0},{"OBJECT_NAME":"ONEWEB-0367","OBJECT_ID":"2021-090Q","EPOCH":"2026-06-06T15:11:31.759008","MEAN_MOTION":13.20715594,"ECCENTRICITY":4.29e-05,"INCLINATION":87.9195,"RA_OF_ASC_NODE":276.5438,"ARG_OF_PERICENTER":122.4243,"MEAN_ANOMALY":237.6931,"EPHEMERIS_TYPE":0,"CLASSIFICATION_TYPE":"U","NORAD_CAT_ID":49293,"ELEMENT_SET_NO":999,"REV_AT_EPOCH":22843,"BSTAR":-0.030692999999999998,"MEAN_MOTION_DOT":-0.00012439,"MEAN_MOTION_DDOT":0.0},{"OBJECT_NAME":"ONEWEB-0368","OBJECT_ID":"2021-090R","EPOCH":"2026-06-07T01:28:24.708576","MEAN_MOTION":13.20769917,"ECCENTRICITY":0.0001724,"INCLINATION":87.9175,"RA_OF_ASC_NODE":276.4701,"ARG_OF_PERICENTER":79.4011,"MEAN_ANOMALY":280.7316,"EPHEMERIS_TYPE":0,"CLASSIFICATION_TYPE":"U","NORAD_CAT_ID":49294,"ELEMENT_SET_NO":999,"REV_AT_EPOCH":22964,"BSTAR":-2.5771e-05,"MEAN_MOTION_DOT":3e-08,"MEAN_MOTION_DDOT":0.0},{"OBJECT_NAME":"ONEWEB-0369","OBJECT_ID":"2021-090S","EPOCH":"2026-06-07T04:10:46.437312","MEAN_MOTION":13.19724067,"ECCENTRICITY":0.0001715,"INCLINATION":87.9158,"RA_OF_ASC_NODE":306.9696,"ARG_OF_PERICENTER":95.281,"MEAN_ANOMALY":264.8518,"EPHEMERIS_TYPE":0,"CLASSIFICATION_TYPE":"U","NORAD_CAT_ID":49295,"ELEMENT_SET_NO":999,"REV_AT_EPOCH":22509,"BSTAR":-0.00023406,"MEAN_MOTION_DOT":-8.1e-07,"MEAN_MOTION_DDOT":0.0},{"OBJECT_NAME":"ONEWEB-0370","OBJECT_ID":"2021-090T","EPOCH":"2026-06-07T05:57:30.458880","MEAN_MOTION":13.20771014,"ECCENTRICITY":0.0001982,"INCLINATION":87.9191,"RA_OF_ASC_NODE":276.4212,"ARG_OF_PERICENTER":106.8525,"MEAN_ANOMALY":253.2826,"EPHEMERIS_TYPE":0,"CLASSIFICATION_TYPE":"U","NORAD_CAT_ID":49296,"ELEMENT_SET_NO":999,"REV_AT_EPOCH":22855,"BSTAR":-0.00041516,"MEAN_MOTION_DOT":-1.56e-06,"MEAN_MOTION_DDOT":0.0}]