ONEWEB-0349             
1 49281U 21090C   26158.07657505  .00000092  00000+0  19547-3 0  9992
2 49281  87.9195 276.4563 0001938 101.9006 258.2345 13.20771595228490
ONEWEB-0353             
1 49282U 21090D   26157.40198239 -.00000167  00000+0 -48589-3 0  9996
2 49282  87.8955 291.8539 0001645  95.4489 264.6829 13.14502319226164
ONEWEB-0356             
1 49283U 21090E   26158.07489267  .00000038  00000+0  61115-4 0  9991
2 49283  87.9193 276.4499 0002378  82.0625 278.0778 13.20772981228493
ONEWEB-0358             
1 49284U 21090F   26158.25584992  .00000031  00000+0  44999-4 0  9997
2 49284  87.9191 276.4173 0002113  99.3448 260.7925 13.20770664229244
ONEWEB-0359             
1 49285U 21090G   26158.25333934  .00000031  00000+0  43077-4 0  9992
2 49285  87.9190 276.4141 0002218 102.5705 257.5676 13.20772381229221
ONEWEB-0360             
1 49286U 21090H   26158.24322144 -.00000073  00000+0 -21029-3 0  9993
2 49286  87.9197 276.4224 0001964 104.1730 255.9621 13.20771282228538
ONEWEB-0361             
1 49287U 21090J   26158.07319272 -.00000107  00000+0 -29537-3 0  9993
2 49287  87.9188 276.4547 0002142  99.8562 260.2813 13.20770736228961
ONEWEB-0362             
1 49288U 21090K   26158.16939897 -.00000139  00000+0 -37972-3 0  9992
2 49288  87.9162 306.9747 0001726 104.9047 255.2277 13.19724594225591
ONEWEB-0363             
1 49289U 21090L   26157.55803970 -.00000298  00000+0 -76447-3 0  9993
2 49289  87.9188 276.5576 0002121  92.5197 267.6179 13.20772150228909
ONEWEB-0364             
1 49290U 21090M   26158.27858146  .00000222  00000+0  51479-3 0  9993
2 49290  87.9184 276.4224 0001985 101.2238 258.9118 13.20770916230139
ONEWEB-0365             
1 49291U 21090N   26158.10306551 -.00000108  00000+0 -30313-3 0  9993
2 49291  87.9170 306.9754 0001698  98.0684 262.0642 13.19725522225099
ONEWEB-0366             
1 49292U 21090P   26158.08386701 -.00000178  00000+0 -51523-3 0  9999
2 49292  87.8955 291.7203 0001931  99.8163 260.3185 13.14501915226234
ONEWEB-0367             
1 49293U 21090Q   26157.63300647 -.00012439  00000+0 -30693-1 0  9991
2 49293  87.9195 276.5438 0000429 122.4243 237.6931 13.20715594228433
ONEWEB-0368             
1 49294U 21090R   26158.06139709  .00000003  00000+0 -25771-4 0  9996
2 49294  87.9175 276.4701 0001724  79.4011 280.7316 13.20769917229645
ONEWEB-0369             
1 49295U 21090S   26158.17414858 -.00000081  00000+0 -23406-3 0  9999
2 49295  87.9158 306.9696 0001715  95.2810 264.8518 13.19724067225099
ONEWEB-0370             
1 49296U 21090T   26158.24826920 -.00000156  00000+0 -41516-3 0  9990
2 49296  87.9191 276.4212 0001982 106.8525 253.2826 13.20771014228554
